SAT-40613
1 40613U 15022A   26088.18636039 -.00000028  00000-0  00000+0 0  9994
2 40613   0.0140 185.3580 0002611 177.1224 250.5438  1.00270200 40019